STARLINK-2123
1 27401C 21005BE  21325.12251181  .00009031  00000-0  60527-3 0  3257
2 27401  53.0539 237.6863 0001976  57.6088  80.9525 15.06378823    18
